{"type": "FeatureCollection", "features": [ {"type": "Feature", "properties": {"norad_id": 33153, "name": "INTELSAT 25 (IS-25)", "group": "intelsat", "lat": -2.134604581658283, "lon": 11.163109239433936, "alt_km": 35790.40241004404, "timestamp": "2025-12-22T20:43:45.510425+00:00", "meta": {"OBJECT_NAME": "INTELSAT 25 (IS-25)", "OBJECT_ID": "2008-034A", "EPOCH": "2025-12-22T11:18:11.320704", "MEAN_MOTION": 1.00272968, "ECCENTRICITY": 0.00048029, "INCLINATION": 2.2512, "RA_OF_ASC_NODE": 82.5459, "ARG_OF_PERICENTER": 186.2085, "MEAN_ANOMALY": 320.5641, "EPHEMERIS_TYPE": 0, "CLASSIFICATION_TYPE": "U", "NORAD_CAT_ID": 33153, "ELEMENT_SET_NO": 999, "REV_AT_EPOCH": 6392, "BSTAR": 0, "MEAN_MOTION_DOT": -2.03e-06, "MEAN_MOTION_DDOT": 0}, "tle": {"line1": "1 33153U 08034A   25356.47096436 -.00000203  00000+0  00000+0 0  9994", "line2": "2 33153   2.2512  82.5459 0004802 186.2085 320.5641  1.00272968 63922"}}, "geometry": {"type": "Point", "coordinates": [11.163109239433936, -2.134604581658283]}}, {"type": "Feature", "properties": {"norad_id": 33376, "name": "GALAXY 19 (G-19)", "group": "intelsat", "lat": 0.004359210332159696, "lon": -54.39442961678193, "alt_km": 35776.53980519481, "timestamp": "2025-12-22T20:43:45.510437+00:00", "meta": {"OBJECT_NAME": "GALAXY 19 (G-19)", "OBJECT_ID": "2008-045A", "EPOCH": "2025-12-22T10:59:28.112928", "MEAN_MOTION": 1.0027123, "ECCENTRICITY": 0.00025897, "INCLINATION": 0.0477, "RA_OF_ASC_NODE": 266.0918, "ARG_OF_PERICENTER": 11.8302, "MEAN_ANOMALY": 241.2052, "EPHEMERIS_TYPE": 0, "CLASSIFICATION_TYPE": "U", "NORAD_CAT_ID": 33376, "ELEMENT_SET_NO": 999, "REV_AT_EPOCH": 6313, "BSTAR": 0, "MEAN_MOTION_DOT": -1.17e-06, "MEAN_MOTION_DDOT": 0}, "tle": {"line1": "1 33376U 08045A   25356.45796427 -.00000117  00000+0  00000+0 0  9992", "line2": "2 33376   0.0477 266.0918 0002589  11.8302 241.2052  1.00271230 63138"}}, "geometry": {"type": "Point", "coordinates": [-54.39442961678193, 0.004359210332159696]}}, {"type": "Feature", "properties": {"norad_id": 35493, "name": "FM-5", "group": "intelsat", "lat": -0.004159737732073419, "lon": -43.53380125860493, "alt_km": 35790.424797142274, "timestamp": "2025-12-22T20:43:45.510448+00:00", "meta": {"OBJECT_NAME": "FM-5", "OBJECT_ID": "2009-034A", "EPOCH": "2025-12-22T10:07:05.157408", "MEAN_MOTION": 1.00271549, "ECCENTRICITY": 0.00010976, "INCLINATION": 0.0241, "RA_OF_ASC_NODE": 288.3712, "ARG_OF_PERICENTER": 231.211, "MEAN_ANOMALY": 357.2827, "EPHEMERIS_TYPE": 0, "CLASSIFICATION_TYPE": "U", "NORAD_CAT_ID": 35493, "ELEMENT_SET_NO": 999, "REV_AT_EPOCH": 4487, "BSTAR": 0, "MEAN_MOTION_DOT": -1.79e-06, "MEAN_MOTION_DDOT": 0}, "tle": {"line1": "1 35493U 09034A   25356.42158747 -.00000179  00000+0  00000+0 0  9995", "line2": "2 35493   0.0241 288.3712 0001097 231.2110 357.2827  1.00271549 44877"}}, "geometry": {"type": "Point", "coordinates": [-43.53380125860493, -0.004159737732073419]}}, {"type": "Feature", "properties": {"norad_id": 36097, "name": "INTELSAT 14 (IS-14)", "group": "intelsat", "lat": -0.0034339268207970327, "lon": -2.378141317405081, "alt_km": 35783.719262458326, "timestamp": "2025-12-22T20:43:45.510460+00:00", "meta": {"OBJECT_NAME": "INTELSAT 14 (IS-14)", "OBJECT_ID": "2009-064A", "EPOCH": "2025-12-22T11:14:19.190688", "MEAN_MOTION": 1.00270016, "ECCENTRICITY": 0.00025243, "INCLINATION": 0.006, "RA_OF_ASC_NODE": 1.7208, "ARG_OF_PERICENTER": 281.7349, "MEAN_ANOMALY": 291.3984, "EPHEMERIS_TYPE": 0, "CLASSIFICATION_TYPE": "U", "NORAD_CAT_ID": 36097, "ELEMENT_SET_NO": 999, "REV_AT_EPOCH": 5883, "BSTAR": 0, "MEAN_MOTION_DOT": -2.52e-06, "MEAN_MOTION_DDOT": 0}, "tle": {"line1": "1 36097U 09064A   25356.46827767 -.00000252  00000+0  00000+0 0  9990", "line2": "2 36097   0.0060   1.7208 0002524 281.7349 291.3984  1.00270016 58835"}}, "geometry": {"type": "Point", "coordinates": [-2.378141317405081, -0.0034339268207970327]}}, {"type": "Feature", "properties": {"norad_id": 36106, "name": "INTELSAT 15 (IS-15)", "group": "intelsat", "lat": 0.0362743047267668, "lon": 127.74599625742032, "alt_km": 35794.66905399379, "timestamp": "2025-12-22T20:43:45.510472+00:00", "meta": {"OBJECT_NAME": "INTELSAT 15 (IS-15)", "OBJECT_ID": "2009-067A", "EPOCH": "2025-12-22T11:51:31.929120", "MEAN_MOTION": 1.00271405, "ECCENTRICITY": 0.00021977, "INCLINATION": 0.0184, "RA_OF_ASC_NODE": 2.3066, "ARG_OF_PERICENTER": 280.931, "MEAN_ANOMALY": 71.1056, "EPHEMERIS_TYPE": 0, "CLASSIFICATION_TYPE": "U", "NORAD_CAT_ID": 36106, "ELEMENT_SET_NO": 999, "REV_AT_EPOCH": 3945, "BSTAR": 0, "MEAN_MOTION_DOT": -1.64e-06, "MEAN_MOTION_DDOT": 0}, "tle": {"line1": "1 36106U 09067A   25356.49411955 -.00000164  00000+0  00000+0 0  9997", "line2": "2 36106   0.0184   2.3066 0002197 280.9310  71.1056  1.00271405 39451"}}, "geometry": {"type": "Point", "coordinates": [127.74599625742032, 0.0362743047267668]}}, {"type": "Feature", "properties": {"norad_id": 36131, "name": "DIRECTV 12", "group": "intelsat", "lat": -0.014120598273299763, "lon": -60.11171261746225, "alt_km": 35783.04430633891, "timestamp": "2025-12-22T20:43:45.510484+00:00", "meta": {"OBJECT_NAME": "DIRECTV 12", "OBJECT_ID": "2009-075A", "EPOCH": "2025-12-22T10:57:50.767776", "MEAN_MOTION": 1.00275076, "ECCENTRICITY": 5.277e-05, "INCLINATION": 0.0127, "RA_OF_ASC_NODE": 95.6237, "ARG_OF_PERICENTER": 221.682, "MEAN_ANOMALY": 195.7074, "EPHEMERIS_TYPE": 0, "CLASSIFICATION_TYPE": "U", "NORAD_CAT_ID": 36131, "ELEMENT_SET_NO": 999, "REV_AT_EPOCH": 4478, "BSTAR": 0, "MEAN_MOTION_DOT": -8.2e-07, "MEAN_MOTION_DDOT": 0}, "tle": {"line1": "1 36131U 09075A   25356.45683759 -.00000082  00000+0  00000+0 0  9992", "line2": "2 36131   0.0127  95.6237 0000527 221.6820 195.7074  1.00275076 44787"}}, "geometry": {"type": "Point", "coordinates": [-60.11171261746225, -0.014120598273299763]}}, {"type": "Feature", "properties": {"norad_id": 36397, "name": "INTELSAT 16 (IS-16)", "group": "intelsat", "lat": -0.0072211658507226745, "lon": -33.58242473216489, "alt_km": 35781.93501980764, "timestamp": "2025-12-22T20:43:45.510496+00:00", "meta": {"OBJECT_NAME": "INTELSAT 16 (IS-16)", "OBJECT_ID": "2010-006A", "EPOCH": "2025-12-22T09:22:57.109728", "MEAN_MOTION": 1.00270699, "ECCENTRICITY": 0.00018421, "INCLINATION": 0.0149, "RA_OF_ASC_NODE": 318.3593, "ARG_OF_PERICENTER": 313.1996, "MEAN_ANOMALY": 244.1827, "EPHEMERIS_TYPE": 0, "CLASSIFICATION_TYPE": "U", "NORAD_CAT_ID": 36397, "ELEMENT_SET_NO": 999, "REV_AT_EPOCH": 5788, "BSTAR": 0, "MEAN_MOTION_DOT": -2.23e-06, "MEAN_MOTION_DDOT": 0}, "tle": {"line1": "1 36397U 10006A   25356.39093877 -.00000223  00000+0  00000+0 0  9998", "line2": "2 36397   0.0149 318.3593 0001842 313.1996 244.1827  1.00270699 57883"}}, "geometry": {"type": "Point", "coordinates": [-33.58242473216489, -0.0072211658507226745]}}, {"type": "Feature", "properties": {"norad_id": 37185, "name": "XM-5", "group": "intelsat", "lat": -0.0057769183797218146, "lon": -72.57489649601767, "alt_km": 35792.84717640959, "timestamp": "2025-12-22T20:43:45.510507+00:00", "meta": {"OBJECT_NAME": "XM-5", "OBJECT_ID": "2010-053A", "EPOCH": "2025-12-22T10:47:31.225344", "MEAN_MOTION": 1.00272, "ECCENTRICITY": 0.00021803, "INCLINATION": 0.0677, "RA_OF_ASC_NODE": 270.2646, "ARG_OF_PERICENTER": 239.2198, "MEAN_ANOMALY": 348.4632, "EPHEMERIS_TYPE": 0, "CLASSIFICATION_TYPE": "U", "NORAD_CAT_ID": 37185, "ELEMENT_SET_NO": 999, "REV_AT_EPOCH": 5571, "BSTAR": 0, "MEAN_MOTION_DOT": -1e-08, "MEAN_MOTION_DDOT": 0}, "tle": {"line1": "1 37185U 10053A   25356.44966696 -.00000001  00000+0  00000+0 0  9994", "line2": "2 37185   0.0677 270.2646 0002180 239.2198 348.4632  1.00272000 55718"}}, "geometry": {"type": "Point", "coordinates": [-72.57489649601767, -0.0057769183797218146]}}, {"type": "Feature", "properties": {"norad_id": 37238, "name": "INTELSAT 17 (IS-17)", "group": "intelsat", "lat": 0.013004598690349995, "lon": 108.57741740477957, "alt_km": 35797.064952527115, "timestamp": "2025-12-22T20:43:45.510519+00:00", "meta": {"OBJECT_NAME": "INTELSAT 17 (IS-17)", "OBJECT_ID": "2010-065B", "EPOCH": "2025-12-22T13:28:45.118848", "MEAN_MOTION": 1.00271519, "ECCENTRICITY": 0.00026093, "INCLINATION": 0.009, "RA_OF_ASC_NODE": 296.0844, "ARG_OF_PERICENTER": 343.6622, "MEAN_ANOMALY": 79.7934, "EPHEMERIS_TYPE": 0, "CLASSIFICATION_TYPE": "U", "NORAD_CAT_ID": 37238, "ELEMENT_SET_NO": 999, "REV_AT_EPOCH": 5147, "BSTAR": 0, "MEAN_MOTION_DOT": 2e-07, "MEAN_MOTION_DDOT": 0}, "tle": {"line1": "1 37238U 10065B   25356.56163332  .00000020  00000+0  00000+0 0  9995", "line2": "2 37238   0.0090 296.0844 0002609 343.6622  79.7934  1.00271519 51472"}}, "geometry": {"type": "Point", "coordinates": [108.57741740477957, 0.013004598690349995]}}, {"type": "Feature", "properties": {"norad_id": 37392, "name": "INTELSAT 28 (IS-28)", "group": "intelsat", "lat": -1.296355285269051, "lon": 10.929910472229691, "alt_km": 35788.68250980398, "timestamp": "2025-12-22T20:43:45.510531+00:00", "meta": {"OBJECT_NAME": "INTELSAT 28 (IS-28)", "OBJECT_ID": "2011-016A", "EPOCH": "2025-12-22T11:18:11.320704", "MEAN_MOTION": 1.00269174, "ECCENTRICITY": 0.00037354, "INCLINATION": 1.3482, "RA_OF_ASC_NODE": 84.951, "ARG_OF_PERICENTER": 189.9197, "MEAN_ANOMALY": 314.2415, "EPHEMERIS_TYPE": 0, "CLASSIFICATION_TYPE": "U", "NORAD_CAT_ID": 37392, "ELEMENT_SET_NO": 999, "REV_AT_EPOCH": 5151, "BSTAR": 0, "MEAN_MOTION_DOT": -2.04e-06, "MEAN_MOTION_DDOT": 0}, "tle": {"line1": "1 37392U 11016A   25356.47096436 -.00000204  00000+0  00000+0 0  9998", "line2": "2 37392   1.3482  84.9510 0003735 189.9197 314.2415  1.00269174 51515"}}, "geometry": {"type": "Point", "coordinates": [10.929910472229691, -1.296355285269051]}}]}